; ==========================================================
; Pen Plot — pen-plotter G-code (no slicing, no extrusion, no heat)
; https://penplot.gearup.wtf
; Title: Slab Test A front - Cap Sequence 1
; Generated: 2026-10-08T12:00:00.000Z
; Printer: Creality Ender-5 Pro — bed 220 x 220 mm, nozzle X 0..220 Y 0..220
; Pen offset from nozzle: X 0 Y 0 mm (coordinates below are NOZZLE positions)
; Pen-down Z 5.3 | pen-up Z 8.3 | safe Z 15 | lowest Z in file 5.3
; Speeds (mm/min): draw 1500, travel 4800, Z 300
; Dwell: 150 ms after pen down, 80 ms after pen up
; Corners: no special handling
; Bounds: reachable pen area X 0..220 Y 0..220 (clip)
; Paths: 39 | pen lifts: 38 | draw 1142 mm | travel 394 mm
; Estimated time: 2m 11s (approx., ignores acceleration)
; Lines: 619
; ==========================================================
; ---- start G-code ----
G21 ; millimetres
G90 ; absolute positioning
M104 S0 ; hotend heater OFF (pen plotting, no heat)
M140 S0 ; bed heater OFF
M107 ; part fan off
G28 ; home all axes (Ender-5: Z homes with the bed at the top)
G0 Z15 F300 ; drop the bed to safe travel Z before any XY move
; ---- first move after homing: lift to safe Z ----
G0 Z15 F300 ; safe travel Z
; path 1/39
G0 X185 Y144 F4800
G1 Z5.3 F300 ; pen down
G4 P150 ; settle after pen down
G1 X35 Y144 F1500
G1 X35 Y76
G1 X185 Y76
G1 X185 Y144
; path 2/39
G0 Z8.3 F300 ; pen up
G4 P80 ; settle after pen up
G0 X166.4 Y139.95 F4800
G1 Z5.3 F300 ; pen down
G4 P150 ; settle after pen down
G1 X166.4 Y110.95 F1500
; path 3/39
G0 Z8.3 F300 ; pen up
G4 P80 ; settle after pen up
G0 X166.4 Y110.875 F4800
G1 Z5.3 F300 ; pen down
G4 P150 ; settle after pen down
G1 X166.13 Y110.832 F1500
G1 X165.886 Y110.708
G1 X165.692 Y110.514
G1 X165.568 Y110.27
G1 X165.525 Y110
G1 X165.568 Y109.73
G1 X165.692 Y109.486
G1 X165.886 Y109.292
G1 X166.13 Y109.168
G1 X166.4 Y109.125
G1 X166.67 Y109.168
G1 X166.914 Y109.292
G1 X167.108 Y109.486
G1 X167.232 Y109.73
G1 X167.275 Y110
G1 X167.232 Y110.27
G1 X167.108 Y110.514
G1 X166.914 Y110.708
G1 X166.67 Y110.832
G1 X166.4 Y110.875
; path 4/39
G0 Z8.3 F300 ; pen up
G4 P80 ; settle after pen up
G0 X166.4 Y110.438 F4800
G1 Z5.3 F300 ; pen down
G4 P150 ; settle after pen down
G1 X166.181 Y110.379 F1500
G1 X166.021 Y110.219
G1 X165.963 Y110
G1 X166.021 Y109.781
G1 X166.181 Y109.621
G1 X166.4 Y109.563
G1 X166.619 Y109.621
G1 X166.779 Y109.781
G1 X166.838 Y110
G1 X166.779 Y110.219
G1 X166.619 Y110.379
G1 X166.4 Y110.438
; path 5/39
G0 Z8.3 F300 ; pen up
G4 P80 ; settle after pen up
G0 X166.392 Y109.066 F4800
G1 Z5.3 F300 ; pen down
G4 P150 ; settle after pen down
G1 X166.33 Y107.196 F1500
G1 X166.206 Y105.33
G1 X165.788 Y101.712
G1 X165.482 Y99.867
G1 X165.116 Y98.033
G1 X164.229 Y94.501
G1 X163.685 Y92.712
G1 X163.082 Y90.941
G1 X161.742 Y87.556
G1 X160.969 Y85.853
G1 X160.141 Y84.176
G1 X158.37 Y80.994
; path 6/39
G0 Z8.3 F300 ; pen up
G4 P80 ; settle after pen up
G0 X166.4 Y80.05 F4800
G1 Z5.3 F300 ; pen down
G4 P150 ; settle after pen down
G1 X166.4 Y110 F1500
G1 X166.367 Y111.919
G1 X166.273 Y113.787
G1 X165.911 Y117.41
G1 X165.316 Y121.003
G1 X164.491 Y124.55
G1 X163.979 Y126.349
G1 X163.407 Y128.129
G1 X162.126 Y131.538
G1 X160.627 Y134.857
G1 X159.775 Y136.522
G1 X158.869 Y138.157
; path 7/39
G0 Z8.3 F300 ; pen up
G4 P80 ; settle after pen up
G0 X147.6 Y139.95 F4800
G1 Z5.3 F300 ; pen down
G4 P150 ; settle after pen down
G1 X147.6 Y110.95 F1500
; path 8/39
G0 Z8.3 F300 ; pen up
G4 P80 ; settle after pen up
G0 X147.6 Y110.875 F4800
G1 Z5.3 F300 ; pen down
G4 P150 ; settle after pen down
G1 X147.33 Y110.832 F1500
G1 X147.086 Y110.708
G1 X146.892 Y110.514
G1 X146.768 Y110.27
G1 X146.725 Y110
G1 X146.768 Y109.73
G1 X146.892 Y109.486
G1 X147.086 Y109.292
G1 X147.33 Y109.168
G1 X147.6 Y109.125
G1 X147.87 Y109.168
G1 X148.114 Y109.292
G1 X148.308 Y109.486
G1 X148.432 Y109.73
G1 X148.475 Y110
G1 X148.432 Y110.27
G1 X148.308 Y110.514
G1 X148.114 Y110.708
G1 X147.87 Y110.832
G1 X147.6 Y110.875
; path 9/39
G0 Z8.3 F300 ; pen up
G4 P80 ; settle after pen up
G0 X147.6 Y110.438 F4800
G1 Z5.3 F300 ; pen down
G4 P150 ; settle after pen down
G1 X147.381 Y110.379 F1500
G1 X147.221 Y110.219
G1 X147.162 Y110
G1 X147.221 Y109.781
G1 X147.381 Y109.621
G1 X147.6 Y109.563
G1 X147.819 Y109.621
G1 X147.979 Y109.781
G1 X148.037 Y110
G1 X147.979 Y110.219
G1 X147.819 Y110.379
G1 X147.6 Y110.438
; path 10/39
G0 Z8.3 F300 ; pen up
G4 P80 ; settle after pen up
G0 X147.6 Y110.05 F4800
G1 Z5.3 F300 ; pen down
G4 P150 ; settle after pen down
G1 X147.515 Y112.525 F1500
G1 X147.274 Y114.94
G1 X146.878 Y117.335
G1 X146.31 Y119.763
G1 X145.605 Y122.086
G1 X144.725 Y124.419
G1 X143.722 Y126.63
G1 X142.579 Y128.771
; path 11/39
G0 Z8.3 F300 ; pen up
G4 P80 ; settle after pen up
G0 X128.8 Y139.95 F4800
G1 Z5.3 F300 ; pen down
G4 P150 ; settle after pen down
G1 X128.8 Y110.95 F1500
; path 12/39
G0 Z8.3 F300 ; pen up
G4 P80 ; settle after pen up
G0 X128.8 Y110.875 F4800
G1 Z5.3 F300 ; pen down
G4 P150 ; settle after pen down
G1 X128.53 Y110.832 F1500
G1 X128.286 Y110.708
G1 X128.092 Y110.514
G1 X127.968 Y110.27
G1 X127.925 Y110
G1 X127.968 Y109.73
G1 X128.092 Y109.486
G1 X128.286 Y109.292
G1 X128.53 Y109.168
G1 X128.8 Y109.125
G1 X129.07 Y109.168
G1 X129.314 Y109.292
G1 X129.508 Y109.486
G1 X129.632 Y109.73
G1 X129.675 Y110
G1 X129.632 Y110.27
G1 X129.508 Y110.514
G1 X129.314 Y110.708
G1 X129.07 Y110.832
G1 X128.8 Y110.875
; path 13/39
G0 Z8.3 F300 ; pen up
G4 P80 ; settle after pen up
G0 X128.8 Y110.438 F4800
G1 Z5.3 F300 ; pen down
G4 P150 ; settle after pen down
G1 X128.581 Y110.379 F1500
G1 X128.421 Y110.219
G1 X128.362 Y110
G1 X128.421 Y109.781
G1 X128.581 Y109.621
G1 X128.8 Y109.563
G1 X129.019 Y109.621
G1 X129.179 Y109.781
G1 X129.237 Y110
G1 X129.179 Y110.219
G1 X129.019 Y110.379
G1 X128.8 Y110.438
; path 14/39
G0 Z8.3 F300 ; pen up
G4 P80 ; settle after pen up
G0 X128.8 Y110.05 F4800
G1 Z5.3 F300 ; pen down
G4 P150 ; settle after pen down
G1 X128.758 Y111.262 F1500
G1 X128.633 Y112.503
G1 X128.432 Y113.7
G1 X128.155 Y114.882
G1 X127.802 Y116.043
G1 X127.363 Y117.21
G1 X126.861 Y118.315
G1 X126.29 Y119.386
; path 15/39
G0 Z8.3 F300 ; pen up
G4 P80 ; settle after pen up
G0 X128.8 Y110 F4800
G1 Z5.3 F300 ; pen down
G4 P150 ; settle after pen down
G1 X128.8 Y80.05 F1500
; path 16/39
G0 Z8.3 F300 ; pen up
G4 P80 ; settle after pen up
G0 X142.246 Y90.663 F4800
G1 Z5.3 F300 ; pen down
G4 P150 ; settle after pen down
G1 X143.457 Y92.842 F1500
G1 X144.495 Y95.037
G1 X145.388 Y97.294
G1 X146.152 Y99.668
G1 X146.758 Y102.086
G1 X147.192 Y104.475
G1 X147.471 Y106.886
G1 X147.595 Y109.377
; path 17/39
G0 Z8.3 F300 ; pen up
G4 P80 ; settle after pen up
G0 X147.6 Y110 F4800
G1 Z5.3 F300 ; pen down
G4 P150 ; settle after pen down
G1 X147.6 Y80.05 F1500
; path 18/39
G0 Z8.3 F300 ; pen up
G4 P80 ; settle after pen up
G0 X126.123 Y100.331 F4800
G1 Z5.3 F300 ; pen down
G4 P150 ; settle after pen down
G1 X126.729 Y101.421 F1500
G1 X127.247 Y102.519
G1 X127.694 Y103.647
G1 X128.076 Y104.834
G1 X128.379 Y106.043
G1 X128.596 Y107.237
G1 X128.735 Y108.443
G1 X128.797 Y109.689
; path 19/39
G0 Z8.3 F300 ; pen up
G4 P80 ; settle after pen up
G0 X110.875 Y110 F4800
G1 Z5.3 F300 ; pen down
G4 P150 ; settle after pen down
G1 X110.832 Y110.27 F1500
G1 X110.708 Y110.514
G1 X110.514 Y110.708
G1 X110.27 Y110.832
G1 X110 Y110.875
G1 X109.73 Y110.832
G1 X109.486 Y110.708
G1 X109.292 Y110.514
G1 X109.168 Y110.27
G1 X109.125 Y110
G1 X109.168 Y109.73
G1 X109.292 Y109.486
G1 X109.486 Y109.292
G1 X109.73 Y109.168
G1 X110 Y109.125
G1 X110.27 Y109.168
G1 X110.514 Y109.292
G1 X110.708 Y109.486
G1 X110.832 Y109.73
G1 X110.875 Y110
; path 20/39
G0 Z8.3 F300 ; pen up
G4 P80 ; settle after pen up
G0 X110.438 Y110 F4800
G1 Z5.3 F300 ; pen down
G4 P150 ; settle after pen down
G1 X110.379 Y110.219 F1500
G1 X110.219 Y110.379
G1 X110 Y110.438
G1 X109.781 Y110.379
G1 X109.621 Y110.219
G1 X109.563 Y110
G1 X109.621 Y109.781
G1 X109.781 Y109.621
G1 X110 Y109.563
G1 X110.219 Y109.621
G1 X110.379 Y109.781
G1 X110.438 Y110
; path 21/39
G0 Z8.3 F300 ; pen up
G4 P80 ; settle after pen up
G0 X110 Y110 F4800
G1 Z5.3 F300 ; pen down
G4 P150 ; settle after pen down
G1 X110 Y80.05 F1500
; path 22/39
G0 Z8.3 F300 ; pen up
G4 P80 ; settle after pen up
G0 X91.2 Y80.05 F4800
G1 Z5.3 F300 ; pen down
G4 P150 ; settle after pen down
G1 X91.2 Y110 F1500
; path 23/39
G0 Z8.3 F300 ; pen up
G4 P80 ; settle after pen up
G0 X91.2 Y110.05 F4800
G1 Z5.3 F300 ; pen down
G4 P150 ; settle after pen down
G1 X91.238 Y108.803 F1500
G1 X91.359 Y107.562
G1 X91.555 Y106.364
G1 X91.836 Y105.15
G1 X92.187 Y103.988
G1 X92.625 Y102.821
G1 X93.139 Y101.685
G1 X93.71 Y100.614
; path 24/39
G0 Z8.3 F300 ; pen up
G4 P80 ; settle after pen up
G0 X91.47 Y109.168 F4800
G1 Z5.3 F300 ; pen down
G4 P150 ; settle after pen down
G1 X91.714 Y109.292 F1500
G1 X91.908 Y109.486
G1 X92.032 Y109.73
G1 X92.075 Y110
G1 X92.032 Y110.27
G1 X91.908 Y110.514
G1 X91.714 Y110.708
G1 X91.47 Y110.832
G1 X91.2 Y110.875
G1 X90.93 Y110.832
G1 X90.686 Y110.708
G1 X90.492 Y110.514
G1 X90.368 Y110.27
G1 X90.325 Y110
G1 X90.368 Y109.73
G1 X90.492 Y109.486
G1 X90.686 Y109.292
G1 X90.93 Y109.168
G1 X91.2 Y109.125
G1 X91.47 Y109.168
; path 25/39
G0 Z8.3 F300 ; pen up
G4 P80 ; settle after pen up
G0 X91.419 Y109.621 F4800
G1 Z5.3 F300 ; pen down
G4 P150 ; settle after pen down
G1 X91.579 Y109.781 F1500
G1 X91.638 Y110
G1 X91.579 Y110.219
G1 X91.419 Y110.379
G1 X91.2 Y110.438
G1 X90.981 Y110.379
G1 X90.821 Y110.219
G1 X90.763 Y110
G1 X90.821 Y109.781
G1 X90.981 Y109.621
G1 X91.2 Y109.563
G1 X91.419 Y109.621
; path 26/39
G0 Z8.3 F300 ; pen up
G4 P80 ; settle after pen up
G0 X91.203 Y110.311 F4800
G1 Z5.3 F300 ; pen down
G4 P150 ; settle after pen down
G1 X91.265 Y111.557 F1500
G1 X91.404 Y112.763
G1 X91.621 Y113.957
G1 X91.924 Y115.166
G1 X92.306 Y116.353
G1 X92.753 Y117.481
G1 X93.271 Y118.579
G1 X93.877 Y119.669
; path 27/39
G0 Z8.3 F300 ; pen up
G4 P80 ; settle after pen up
G0 X91.2 Y110.95 F4800
G1 Z5.3 F300 ; pen down
G4 P150 ; settle after pen down
G1 X91.2 Y139.95 F1500
; path 28/39
G0 Z8.3 F300 ; pen up
G4 P80 ; settle after pen up
G0 X77.754 Y129.337 F4800
G1 Z5.3 F300 ; pen down
G4 P150 ; settle after pen down
G1 X76.543 Y127.158 F1500
G1 X75.505 Y124.963
G1 X74.612 Y122.706
G1 X73.848 Y120.332
G1 X73.242 Y117.914
G1 X72.808 Y115.525
G1 X72.529 Y113.114
G1 X72.405 Y110.623
; path 29/39
G0 Z8.3 F300 ; pen up
G4 P80 ; settle after pen up
G0 X72.4 Y110.438 F4800
G1 Z5.3 F300 ; pen down
G4 P150 ; settle after pen down
G1 X72.181 Y110.379 F1500
G1 X72.021 Y110.219
G1 X71.963 Y110
G1 X72.021 Y109.781
G1 X72.181 Y109.621
G1 X72.4 Y109.563
G1 X72.619 Y109.621
G1 X72.779 Y109.781
G1 X72.838 Y110
G1 X72.779 Y110.219
G1 X72.619 Y110.379
G1 X72.4 Y110.438
; path 30/39
G0 Z8.3 F300 ; pen up
G4 P80 ; settle after pen up
G0 X72.4 Y110.05 F4800
G1 Z5.3 F300 ; pen down
G4 P150 ; settle after pen down
G1 X72.476 Y107.606 F1500
G1 X72.717 Y105.125
G1 X73.11 Y102.729
G1 X73.673 Y100.3
G1 X74.374 Y97.976
G1 X75.25 Y95.641
G1 X76.278 Y93.37
G1 X77.421 Y91.229
; path 31/39
G0 Z8.3 F300 ; pen up
G4 P80 ; settle after pen up
G0 X72.4 Y80.05 F4800
G1 Z5.3 F300 ; pen down
G4 P150 ; settle after pen down
G1 X72.4 Y110 F1500
; path 32/39
G0 Z8.3 F300 ; pen up
G4 P80 ; settle after pen up
G0 X73.232 Y110.27 F4800
G1 Z5.3 F300 ; pen down
G4 P150 ; settle after pen down
G1 X73.108 Y110.514 F1500
G1 X72.914 Y110.708
G1 X72.67 Y110.832
G1 X72.4 Y110.875
G1 X72.13 Y110.832
G1 X71.886 Y110.708
G1 X71.692 Y110.514
G1 X71.568 Y110.27
G1 X71.525 Y110
G1 X71.568 Y109.73
G1 X71.692 Y109.486
G1 X71.886 Y109.292
G1 X72.13 Y109.168
G1 X72.4 Y109.125
G1 X72.67 Y109.168
G1 X72.914 Y109.292
G1 X73.108 Y109.486
G1 X73.232 Y109.73
G1 X73.275 Y110
G1 X73.232 Y110.27
; path 33/39
G0 Z8.3 F300 ; pen up
G4 P80 ; settle after pen up
G0 X72.4 Y110.95 F4800
G1 Z5.3 F300 ; pen down
G4 P150 ; settle after pen down
G1 X72.4 Y139.95 F1500
; path 34/39
G0 Z8.3 F300 ; pen up
G4 P80 ; settle after pen up
G0 X61.63 Y139.006 F4800
G1 Z5.3 F300 ; pen down
G4 P150 ; settle after pen down
G1 X59.859 Y135.824 F1500
G1 X59.031 Y134.147
G1 X58.258 Y132.444
G1 X56.918 Y129.059
G1 X56.315 Y127.288
G1 X55.771 Y125.499
G1 X54.884 Y121.967
G1 X54.518 Y120.133
G1 X54.212 Y118.288
G1 X53.794 Y114.67
G1 X53.67 Y112.804
G1 X53.6 Y110.95
G1 X53.6 Y139.95
; path 35/39
G0 Z8.3 F300 ; pen up
G4 P80 ; settle after pen up
G0 X53.6 Y110.875 F4800
G1 Z5.3 F300 ; pen down
G4 P150 ; settle after pen down
G1 X53.33 Y110.832 F1500
G1 X53.086 Y110.708
G1 X52.892 Y110.514
G1 X52.768 Y110.27
G1 X52.725 Y110
G1 X52.768 Y109.73
G1 X52.892 Y109.486
G1 X53.086 Y109.292
G1 X53.33 Y109.168
G1 X53.6 Y109.125
G1 X53.87 Y109.168
G1 X54.114 Y109.292
G1 X54.308 Y109.486
G1 X54.432 Y109.73
G1 X54.475 Y110
G1 X54.432 Y110.27
G1 X54.308 Y110.514
G1 X54.114 Y110.708
G1 X53.87 Y110.832
G1 X53.6 Y110.875
; path 36/39
G0 Z8.3 F300 ; pen up
G4 P80 ; settle after pen up
G0 X53.6 Y110.438 F4800
G1 Z5.3 F300 ; pen down
G4 P150 ; settle after pen down
G1 X53.381 Y110.379 F1500
G1 X53.221 Y110.219
G1 X53.162 Y110
G1 X53.221 Y109.781
G1 X53.381 Y109.621
G1 X53.6 Y109.563
G1 X53.819 Y109.621
G1 X53.979 Y109.781
G1 X54.037 Y110
G1 X53.979 Y110.219
G1 X53.819 Y110.379
G1 X53.6 Y110.438
; path 37/39
G0 Z8.3 F300 ; pen up
G4 P80 ; settle after pen up
G0 X53.6 Y110.05 F4800
G1 Z5.3 F300 ; pen down
G4 P150 ; settle after pen down
G1 X53.629 Y108.179 F1500
G1 X53.721 Y106.311
G1 X54.076 Y102.687
G1 X54.665 Y99.093
G1 X55.057 Y97.265
G1 X55.509 Y95.45
G1 X56.021 Y93.651
G1 X56.593 Y91.871
G1 X57.874 Y88.462
G1 X59.373 Y85.143
G1 X60.225 Y83.478
G1 X61.131 Y81.843
; path 38/39
G0 Z8.3 F300 ; pen up
G4 P80 ; settle after pen up
G0 X53.6 Y80.05 F4800
G1 Z5.3 F300 ; pen down
G4 P150 ; settle after pen down
G1 X53.6 Y110 F1500
; path 39/39
G0 Z8.3 F300 ; pen up
G4 P80 ; settle after pen up
G0 X110 Y110.95 F4800
G1 Z5.3 F300 ; pen down
G4 P150 ; settle after pen down
G1 X110 Y139.95 F1500
; ---- finished: pen up ----
G0 Z8.3 F300 ; pen up
G4 P80 ; settle after pen up
; ---- end G-code ----
G0 Z8.3 F300 ; make sure the pen is lifted
G0 Z28.3 F300 ; lower the bed away from the pen
G0 X0 Y220 F4800 ; move the head out of the way
M84 ; motors off
